[{"Area_Code":"H82007","Area_Name":"Westcourt Medical Centre","Type":"GP","20% most deprived":347,"Quintile 2":1257,"Quintile 3":4733,"Quintile 4":4967,"20% least deprived":1927,"Unknown":1,"Total":13232,"long":-0.5137,"lat":50.8115,"PCN_Code":"U21339","PCN_Name":"Arun Integrated Care (AIC) PCN"},{"Area_Code":"H82009","Area_Name":"St. Lawrence Surgery","Type":"GP","20% most deprived":236,"Quintile 2":1917,"Quintile 3":4464,"Quintile 4":4086,"20% least deprived":5124,"Unknown":5,"Total":15832,"long":-0.39,"lat":50.824,"PCN_Code":"U13952","PCN_Name":"Central Worthing Practices PCN"},{"Area_Code":"H82011","Area_Name":"Strand Medical Group","Type":"GP","20% most deprived":2115,"Quintile 2":1845,"Quintile 3":5053,"Quintile 4":4002,"20% least deprived":2433,"Unknown":3,"Total":15451,"long":-0.4109,"lat":50.8185,"PCN_Code":"U01092","PCN_Name":"Cissbury Integrated Care PCN"},{"Area_Code":"H82012","Area_Name":"Leacroft Medical Practice","Type":"GP","20% most deprived":99,"Quintile 2":7577,"Quintile 3":3550,"Quintile 4":840,"20% least deprived":599,"Unknown":2,"Total":12667,"long":-0.196,"lat":51.1266,"PCN_Code":"U52694","PCN_Name":"Crawley Care Collaborative PCN"},{"Area_Code":"H82013","Area_Name":"Langley House Surgery","Type":"GP","20% most deprived":2,"Quintile 2":1375,"Quintile 3":4978,"Quintile 4":1964,"20% least deprived":4546,"Unknown":5,"Total":12870,"long":-0.7833,"lat":50.8371,"PCN_Code":"U24558","PCN_Name":"Chichester Alliance of Medical Practices PCN"},{"Area_Code":"H82014","Area_Name":"Coppice Surgery","Type":"GP","20% most deprived":318,"Quintile 2":2445,"Quintile 3":1742,"Quintile 4":5443,"20% least deprived":2936,"Unknown":1,"Total":12885,"long":-0.5004,"lat":50.8132,"PCN_Code":"U04748","PCN_Name":"Angmering Coppice Fitzalan (ACF) PCN"},{"Area_Code":"H82016","Area_Name":"Bersted Green Surgery","Type":"GP","20% most deprived":1907,"Quintile 2":3439,"Quintile 3":7764,"Quintile 4":317,"20% least deprived":193,"Unknown":6,"Total":13626,"long":-0.6818,"lat":50.7981,"PCN_Code":"U08235","PCN_Name":"Regis Healthcare PCN"},{"Area_Code":"H82020","Area_Name":"Bognor Medical Centre","Type":"GP","20% most deprived":4408,"Quintile 2":3294,"Quintile 3":1263,"Quintile 4":190,"20% least deprived":72,"Unknown":0,"Total":9227,"long":-0.6772,"lat":50.7836,"PCN_Code":"U08235","PCN_Name":"Regis Healthcare PCN"},{"Area_Code":"H82021","Area_Name":"Arundel Surgery","Type":"GP","20% most deprived":11,"Quintile 2":283,"Quintile 3":4297,"Quintile 4":537,"20% least deprived":1486,"Unknown":0,"Total":6614,"long":-0.5673,"lat":50.8529,"PCN_Code":"U08235","PCN_Name":"Regis Healthcare PCN"},{"Area_Code":"H82023","Area_Name":"Adur Health Partnership","Type":"GP","20% most deprived":72,"Quintile 2":9803,"Quintile 3":6727,"Quintile 4":9992,"20% least deprived":9809,"Unknown":6,"Total":36409,"long":-0.2744,"lat":50.8338,"PCN_Code":"U37037","PCN_Name":"Shoreham and Southwick PCN"},{"Area_Code":"H82025","Area_Name":"Woodlands & Clerklands Partnership","Type":"GP","20% most deprived":115,"Quintile 2":3485,"Quintile 3":6366,"Quintile 4":2651,"20% least deprived":3449,"Unknown":0,"Total":16066,"long":-0.1849,"lat":51.1038,"PCN_Code":"U14816","PCN_Name":"Healthy Crawley PCN"},{"Area_Code":"H82026","Area_Name":"Saxonbrook Medical Centre","Type":"GP","20% most deprived":38,"Quintile 2":6228,"Quintile 3":3972,"Quintile 4":1833,"20% least deprived":6829,"Unknown":2,"Total":18902,"long":-0.1534,"lat":51.1074,"PCN_Code":"U33451","PCN_Name":"South Crawley PCN"},{"Area_Code":"H82028","Area_Name":"The Courtyard Surgery","Type":"GP","20% most deprived":1,"Quintile 2":842,"Quintile 3":3180,"Quintile 4":3108,"20% least deprived":6578,"Unknown":4,"Total":13713,"long":-0.3283,"lat":51.0654,"PCN_Code":"U96386","PCN_Name":"Horsham Collaborative PCN"},{"Area_Code":"H82033","Area_Name":"Gossops Green Medical Ctr","Type":"GP","20% most deprived":183,"Quintile 2":2519,"Quintile 3":2814,"Quintile 4":1758,"20% least deprived":68,"Unknown":1,"Total":7343,"long":-0.2165,"lat":51.1072,"PCN_Code":"U33451","PCN_Name":"South Crawley PCN"},{"Area_Code":"H82034","Area_Name":"Lime Tree Surgery","Type":"GP","20% most deprived":2011,"Quintile 2":3106,"Quintile 3":5189,"Quintile 4":6552,"20% least deprived":10747,"Unknown":3,"Total":27608,"long":-0.3959,"lat":50.8488,"PCN_Code":"U49536","PCN_Name":"Coastal and South Downs PCN"},{"Area_Code":"H82037","Area_Name":"Selsey Medical Practice","Type":"GP","20% most deprived":5,"Quintile 2":2081,"Quintile 3":7476,"Quintile 4":3077,"20% least deprived":62,"Unknown":6,"Total":12707,"long":-0.7918,"lat":50.7333,"PCN_Code":"U24558","PCN_Name":"Chichester Alliance of Medical Practices PCN"},{"Area_Code":"H82038","Area_Name":"Flansham Park Health Centre","Type":"GP","20% most deprived":12,"Quintile 2":43,"Quintile 3":5207,"Quintile 4":8163,"20% least deprived":2,"Unknown":1,"Total":13428,"long":-0.6292,"lat":50.7949,"PCN_Code":"U08235","PCN_Name":"Regis Healthcare PCN"},{"Area_Code":"H82039","Area_Name":"Park Surgery","Type":"GP","20% most deprived":2445,"Quintile 2":3180,"Quintile 3":3519,"Quintile 4":1650,"20% least deprived":313,"Unknown":0,"Total":11107,"long":-0.5317,"lat":50.8088,"PCN_Code":"U21339","PCN_Name":"Arun Integrated Care (AIC) PCN"},{"Area_Code":"H82041","Area_Name":"Victoria Road Surgery","Type":"GP","20% most deprived":2130,"Quintile 2":3266,"Quintile 3":4984,"Quintile 4":2023,"20% least deprived":1051,"Unknown":3,"Total":13457,"long":-0.3768,"lat":50.8169,"PCN_Code":"U13952","PCN_Name":"Central Worthing Practices PCN"},{"Area_Code":"H82042","Area_Name":"Cathedral Medical Group","Type":"GP","20% most deprived":3,"Quintile 2":2846,"Quintile 3":5621,"Quintile 4":1627,"20% least deprived":3516,"Unknown":1,"Total":13614,"long":-0.7764,"lat":50.8322,"PCN_Code":"U24558","PCN_Name":"Chichester Alliance of Medical Practices PCN"},{"Area_Code":"H82043","Area_Name":"Grove House Surgery","Type":"GP","20% most deprived":78,"Quintile 2":98,"Quintile 3":5511,"Quintile 4":2885,"20% least deprived":2924,"Unknown":0,"Total":11496,"long":-0.7182,"lat":50.7818,"PCN_Code":"U08235","PCN_Name":"Regis Healthcare PCN"},{"Area_Code":"H82045","Area_Name":"Worthing Medical Group","Type":"GP","20% most deprived":3064,"Quintile 2":5663,"Quintile 3":7332,"Quintile 4":3435,"20% least deprived":1419,"Unknown":2,"Total":20915,"long":-0.377,"lat":50.8114,"PCN_Code":"U01092","PCN_Name":"Cissbury Integrated Care PCN"},{"Area_Code":"H82046","Area_Name":"Broadwater Medical Centre","Type":"GP","20% most deprived":686,"Quintile 2":1205,"Quintile 3":2331,"Quintile 4":6140,"20% least deprived":1893,"Unknown":0,"Total":12255,"long":-0.3747,"lat":50.8276,"PCN_Code":"U13952","PCN_Name":"Central Worthing Practices PCN"},{"Area_Code":"H82047","Area_Name":"Bridge Medical Centre","Type":"GP","20% most deprived":27,"Quintile 2":1377,"Quintile 3":4337,"Quintile 4":3613,"20% least deprived":2240,"Unknown":0,"Total":11594,"long":-0.1664,"lat":51.1174,"PCN_Code":"U52694","PCN_Name":"Crawley Care Collaborative PCN"},{"Area_Code":"H82048","Area_Name":"Avisford Medical Group","Type":"GP","20% most deprived":108,"Quintile 2":902,"Quintile 3":4471,"Quintile 4":5524,"20% least deprived":185,"Unknown":2,"Total":11192,"long":-0.6139,"lat":50.8227,"PCN_Code":"U08235","PCN_Name":"Regis Healthcare PCN"},{"Area_Code":"H82049","Area_Name":"Parklands Surgery","Type":"GP","20% most deprived":3,"Quintile 2":1895,"Quintile 3":3594,"Quintile 4":1585,"20% least deprived":3452,"Unknown":0,"Total":10529,"long":-0.7875,"lat":50.8389,"PCN_Code":"U24558","PCN_Name":"Chichester Alliance of Medical Practices PCN"},{"Area_Code":"H82050","Area_Name":"Ifield Medical Practice","Type":"GP","20% most deprived":72,"Quintile 2":4792,"Quintile 3":3917,"Quintile 4":753,"20% least deprived":348,"Unknown":4,"Total":9886,"long":-0.2119,"lat":51.1212,"PCN_Code":"U14816","PCN_Name":"Healthy Crawley PCN"},{"Area_Code":"H82053","Area_Name":"Furnace Green Surgery","Type":"GP","20% most deprived":22,"Quintile 2":1899,"Quintile 3":1406,"Quintile 4":1623,"20% least deprived":2203,"Unknown":0,"Total":7153,"long":-0.1725,"lat":51.1071,"PCN_Code":"U14816","PCN_Name":"Healthy Crawley PCN"},{"Area_Code":"H82055","Area_Name":"Billingshurst Surgery","Type":"GP","20% most deprived":2,"Quintile 2":803,"Quintile 3":4259,"Quintile 4":4213,"20% least deprived":4382,"Unknown":7,"Total":13666,"long":-0.4458,"lat":51.025,"PCN_Code":"U57981","PCN_Name":"Chanctonbury PCN"},{"Area_Code":"H82057","Area_Name":"Mid Sussex Health Care","Type":"GP","20% most deprived":5,"Quintile 2":7,"Quintile 3":3329,"Quintile 4":4586,"20% least deprived":12645,"Unknown":5,"Total":20577,"long":-0.1753,"lat":50.9337,"PCN_Code":"U06871","PCN_Name":"Burgess Hill & Villages PCN"},{"Area_Code":"H82058","Area_Name":"Maywood Health Care Centre","Type":"GP","20% most deprived":4013,"Quintile 2":4264,"Quintile 3":5284,"Quintile 4":1592,"20% least deprived":1047,"Unknown":2,"Total":16202,"long":-0.6936,"lat":50.7867,"PCN_Code":"U08235","PCN_Name":"Regis Healthcare PCN"},{"Area_Code":"H82059","Area_Name":"Willow Green Surgery","Type":"GP","20% most deprived":56,"Quintile 2":2486,"Quintile 3":2052,"Quintile 4":3270,"20% least deprived":3031,"Unknown":1,"Total":10896,"long":-0.491,"lat":50.8146,"PCN_Code":"U21339","PCN_Name":"Arun Integrated Care (AIC) PCN"},{"Area_Code":"H82060","Area_Name":"Henfield Medical Centre","Type":"GP","20% most deprived":4,"Quintile 2":6,"Quintile 3":2887,"Quintile 4":2592,"20% least deprived":4743,"Unknown":0,"Total":10232,"long":-0.2756,"lat":50.9361,"PCN_Code":"U57981","PCN_Name":"Chanctonbury PCN"},{"Area_Code":"H82061","Area_Name":"Selden Medical Centre","Type":"GP","20% most deprived":396,"Quintile 2":2316,"Quintile 3":5547,"Quintile 4":362,"20% least deprived":83,"Unknown":0,"Total":8704,"long":-0.3593,"lat":50.8135,"PCN_Code":"U01092","PCN_Name":"Cissbury Integrated Care PCN"},{"Area_Code":"H82064","Area_Name":"Southgate Medical Group","Type":"GP","20% most deprived":207,"Quintile 2":5619,"Quintile 3":2591,"Quintile 4":1263,"20% least deprived":416,"Unknown":0,"Total":10096,"long":-0.1946,"lat":51.1023,"PCN_Code":"U52694","PCN_Name":"Crawley Care Collaborative PCN"},{"Area_Code":"H82065","Area_Name":"Ball Tree Surgery","Type":"GP","20% most deprived":552,"Quintile 2":3959,"Quintile 3":6194,"Quintile 4":2965,"20% least deprived":523,"Unknown":1,"Total":14194,"long":-0.3388,"lat":50.8318,"PCN_Code":"U87478","PCN_Name":"Lancing and Sompting PCN"},{"Area_Code":"H82066","Area_Name":"Fitzalan Medical Group","Type":"GP","20% most deprived":4856,"Quintile 2":3834,"Quintile 3":5419,"Quintile 4":1520,"20% least deprived":314,"Unknown":2,"Total":15945,"long":-0.5376,"lat":50.8065,"PCN_Code":"U04748","PCN_Name":"Angmering Coppice Fitzalan (ACF) PCN"},{"Area_Code":"H82067","Area_Name":"Tangmere Medical Centre","Type":"GP","20% most deprived":29,"Quintile 2":391,"Quintile 3":4048,"Quintile 4":1622,"20% least deprived":510,"Unknown":13,"Total":6613,"long":-0.7184,"lat":50.851,"PCN_Code":"U24558","PCN_Name":"Chichester Alliance of Medical Practices PCN"},{"Area_Code":"H82072","Area_Name":"Silverdale Practice","Type":"GP","20% most deprived":1,"Quintile 2":189,"Quintile 3":1681,"Quintile 4":1720,"20% least deprived":9869,"Unknown":1,"Total":13461,"long":-0.1217,"lat":50.9528,"PCN_Code":"U06871","PCN_Name":"Burgess Hill & Villages PCN"},{"Area_Code":"H82076","Area_Name":"Cornerways Surgery","Type":"GP","20% most deprived":17,"Quintile 2":76,"Quintile 3":319,"Quintile 4":2070,"20% least deprived":1186,"Unknown":0,"Total":3668,"long":-0.4045,"lat":50.8157,"PCN_Code":"U01092","PCN_Name":"Cissbury Integrated Care PCN"},{"Area_Code":"H82077","Area_Name":"The Croft Surgery","Type":"GP","20% most deprived":5,"Quintile 2":507,"Quintile 3":4852,"Quintile 4":4797,"20% least deprived":1422,"Unknown":8,"Total":11591,"long":-0.6578,"lat":50.8414,"PCN_Code":"U08235","PCN_Name":"Regis Healthcare PCN"},{"Area_Code":"H82078","Area_Name":"Southbourne Surgery","Type":"GP","20% most deprived":5,"Quintile 2":20,"Quintile 3":2318,"Quintile 4":4463,"20% least deprived":4054,"Unknown":0,"Total":10860,"long":-0.9032,"lat":50.8449,"PCN_Code":"U24558","PCN_Name":"Chichester Alliance of Medical Practices PCN"},{"Area_Code":"H82087","Area_Name":"Barn Surgery","Type":"GP","20% most deprived":1,"Quintile 2":1,"Quintile 3":1,"Quintile 4":2945,"20% least deprived":1159,"Unknown":3,"Total":4110,"long":-0.4473,"lat":50.814,"PCN_Code":"U49536","PCN_Name":"Coastal and South Downs PCN"},{"Area_Code":"H82088","Area_Name":"Bewbush Medical Centre","Type":"GP","20% most deprived":229,"Quintile 2":4886,"Quintile 3":1489,"Quintile 4":258,"20% least deprived":83,"Unknown":0,"Total":6945,"long":-0.2233,"lat":51.1042,"PCN_Code":"U33451","PCN_Name":"South Crawley PCN"},{"Area_Code":"H82089","Area_Name":"Riverside Surgery","Type":"GP","20% most deprived":2,"Quintile 2":472,"Quintile 3":2167,"Quintile 4":1473,"20% least deprived":4068,"Unknown":1,"Total":8183,"long":-0.336,"lat":51.061,"PCN_Code":"U26939","PCN_Name":"Horsham Central PCN"},{"Area_Code":"H82091","Area_Name":"New Pond Row Surgery","Type":"GP","20% most deprived":429,"Quintile 2":2515,"Quintile 3":3277,"Quintile 4":1678,"20% least deprived":417,"Unknown":1,"Total":8317,"long":-0.3223,"lat":50.8249,"PCN_Code":"U87478","PCN_Name":"Lancing and Sompting PCN"},{"Area_Code":"H82095","Area_Name":"Witterings Medical Centre","Type":"GP","20% most deprived":3,"Quintile 2":1931,"Quintile 3":1987,"Quintile 4":6650,"20% least deprived":85,"Unknown":0,"Total":10656,"long":-0.8745,"lat":50.77,"PCN_Code":"U24558","PCN_Name":"Chichester Alliance of Medical Practices PCN"},{"Area_Code":"H82096","Area_Name":"The Orchard Surgery","Type":"GP","20% most deprived":593,"Quintile 2":1688,"Quintile 3":2570,"Quintile 4":1288,"20% least deprived":147,"Unknown":0,"Total":6286,"long":-0.3244,"lat":50.8281,"PCN_Code":"U87478","PCN_Name":"Lancing and Sompting PCN"},{"Area_Code":"H82098","Area_Name":"Coachmans Medical Practice","Type":"GP","20% most deprived":2488,"Quintile 2":5177,"Quintile 3":2964,"Quintile 4":108,"20% least deprived":40,"Unknown":0,"Total":10777,"long":-0.2039,"lat":51.0963,"PCN_Code":"U33451","PCN_Name":"South Crawley PCN"},{"Area_Code":"H82099","Area_Name":"West Meads Surgery","Type":"GP","20% most deprived":1223,"Quintile 2":1202,"Quintile 3":2687,"Quintile 4":1737,"20% least deprived":865,"Unknown":0,"Total":7714,"long":-0.7015,"lat":50.7883,"PCN_Code":"U08235","PCN_Name":"Regis Healthcare PCN"},{"Area_Code":"H82615","Area_Name":"Ouse Valley Practice","Type":"GP","20% most deprived":9,"Quintile 2":220,"Quintile 3":4421,"Quintile 4":903,"20% least deprived":2731,"Unknown":6,"Total":8290,"long":-0.2015,"lat":51.0603,"PCN_Code":"U03364","PCN_Name":"Haywards Heath Villages PCN"},{"Area_Code":"H82640","Area_Name":"Holbrook Surgery","Type":"GP","20% most deprived":2,"Quintile 2":765,"Quintile 3":3696,"Quintile 4":2832,"20% least deprived":9091,"Unknown":1,"Total":16387,"long":-0.3004,"lat":51.0838,"PCN_Code":"U26939","PCN_Name":"Horsham Central PCN"},{"Area_Code":"Y00351","Area_Name":"Langley Corner Surgery","Type":"GP","20% most deprived":94,"Quintile 2":4426,"Quintile 3":5958,"Quintile 4":877,"20% least deprived":514,"Unknown":3,"Total":11872,"long":-0.2126,"lat":51.1257,"PCN_Code":"U52694","PCN_Name":"Crawley Care Collaborative PCN"},{"Area_Code":"U01092","Area_Name":"Cissbury Integrated Care PCN","Type":"PCN","20% most deprived":5592,"Quintile 2":9900,"Quintile 3":18251,"Quintile 4":9869,"20% least deprived":5121,"Unknown":5,"Total":48738,"PCN_Name":"Cissbury Integrated Care PCN"},{"Area_Code":"U03364","Area_Name":"Haywards Heath Villages PCN","Type":"PCN","20% most deprived":9,"Quintile 2":551,"Quintile 3":6079,"Quintile 4":6085,"20% least deprived":19341,"Unknown":12,"Total":32077,"PCN_Name":"Haywards Heath Villages PCN"},{"Area_Code":"U04748","Area_Name":"Angmering Coppice Fitzalan (ACF) PCN","Type":"PCN","20% most deprived":5174,"Quintile 2":6279,"Quintile 3":7161,"Quintile 4":6963,"20% least deprived":3250,"Unknown":3,"Total":28830,"PCN_Name":"Angmering Coppice Fitzalan (ACF) PCN"},{"Area_Code":"U06871","Area_Name":"Burgess Hill & Villages PCN","Type":"PCN","20% most deprived":6,"Quintile 2":1120,"Quintile 3":7117,"Quintile 4":9230,"20% least deprived":32642,"Unknown":9,"Total":50124,"PCN_Name":"Burgess Hill & Villages PCN"},{"Area_Code":"U08235","Area_Name":"Regis Healthcare PCN","Type":"PCN","20% most deprived":11765,"Quintile 2":14032,"Quintile 3":41336,"Quintile 4":25742,"20% least deprived":8196,"Unknown":19,"Total":101090,"PCN_Name":"Regis Healthcare PCN"},{"Area_Code":"U13952","Area_Name":"Central Worthing Practices PCN","Type":"PCN","20% most deprived":3052,"Quintile 2":6388,"Quintile 3":11779,"Quintile 4":12249,"20% least deprived":8068,"Unknown":8,"Total":41544,"PCN_Name":"Central Worthing Practices PCN"},{"Area_Code":"U14816","Area_Name":"Healthy Crawley PCN","Type":"PCN","20% most deprived":209,"Quintile 2":11466,"Quintile 3":15262,"Quintile 4":6189,"20% least deprived":16529,"Unknown":4,"Total":49659,"PCN_Name":"Healthy Crawley PCN"},{"Area_Code":"U21339","Area_Name":"Arun Integrated Care (AIC) PCN","Type":"PCN","20% most deprived":2848,"Quintile 2":6923,"Quintile 3":10304,"Quintile 4":9887,"20% least deprived":5271,"Unknown":2,"Total":35235,"PCN_Name":"Arun Integrated Care (AIC) PCN"},{"Area_Code":"U24558","Area_Name":"Chichester Alliance of Medical Practices PCN","Type":"PCN","20% most deprived":50,"Quintile 2":11602,"Quintile 3":36645,"Quintile 4":21759,"20% least deprived":19741,"Unknown":37,"Total":89834,"PCN_Name":"Chichester Alliance of Medical Practices PCN"},{"Area_Code":"U26939","Area_Name":"Horsham Central PCN","Type":"PCN","20% most deprived":4,"Quintile 2":3423,"Quintile 3":13180,"Quintile 4":10687,"20% least deprived":29920,"Unknown":5,"Total":57219,"PCN_Name":"Horsham Central PCN"},{"Area_Code":"U33451","Area_Name":"South Crawley PCN","Type":"PCN","20% most deprived":2938,"Quintile 2":18810,"Quintile 3":11239,"Quintile 4":3957,"20% least deprived":7020,"Unknown":3,"Total":43967,"PCN_Name":"South Crawley PCN"},{"Area_Code":"U37037","Area_Name":"Shoreham and Southwick PCN","Type":"PCN","20% most deprived":72,"Quintile 2":9803,"Quintile 3":6727,"Quintile 4":9992,"20% least deprived":9809,"Unknown":6,"Total":36409,"PCN_Name":"Shoreham and Southwick PCN"},{"Area_Code":"U49536","Area_Name":"Coastal and South Downs PCN","Type":"PCN","20% most deprived":2012,"Quintile 2":3107,"Quintile 3":5190,"Quintile 4":9497,"20% least deprived":11906,"Unknown":6,"Total":31718,"PCN_Name":"Coastal and South Downs PCN"},{"Area_Code":"U52694","Area_Name":"Crawley Care Collaborative PCN","Type":"PCN","20% most deprived":427,"Quintile 2":18999,"Quintile 3":16436,"Quintile 4":6593,"20% least deprived":3769,"Unknown":5,"Total":46229,"PCN_Name":"Crawley Care Collaborative PCN"},{"Area_Code":"U57981","Area_Name":"Chanctonbury PCN","Type":"PCN","20% most deprived":6,"Quintile 2":818,"Quintile 3":12136,"Quintile 4":14665,"20% least deprived":21623,"Unknown":11,"Total":49259,"PCN_Name":"Chanctonbury PCN"},{"Area_Code":"U87478","Area_Name":"Lancing and Sompting PCN","Type":"PCN","20% most deprived":1574,"Quintile 2":8162,"Quintile 3":12041,"Quintile 4":5931,"20% least deprived":1087,"Unknown":2,"Total":28797,"PCN_Name":"Lancing and Sompting PCN"},{"Area_Code":"U96386","Area_Name":"Horsham Collaborative PCN","Type":"PCN","20% most deprived":1,"Quintile 2":1469,"Quintile 3":6687,"Quintile 4":7698,"20% least deprived":16428,"Unknown":11,"Total":32294,"PCN_Name":"Horsham Collaborative PCN"},{"Area_Code":"H82003","Area_Name":"Meadows Surgery","Type":"GP","20% most deprived":0,"Quintile 2":760,"Quintile 3":976,"Quintile 4":1559,"20% least deprived":6278,"Unknown":2,"Total":9575,"long":-0.1518,"lat":50.9621,"PCN_Code":"U06871","PCN_Name":"Burgess Hill & Villages PCN"},{"Area_Code":"H82004","Area_Name":"Cowfold Surgery","Type":"GP","20% most deprived":0,"Quintile 2":4,"Quintile 3":1653,"Quintile 4":2299,"20% least deprived":870,"Unknown":4,"Total":4830,"long":-0.2734,"lat":50.9891,"PCN_Code":"U96386","PCN_Name":"Horsham Collaborative PCN"},{"Area_Code":"H82005","Area_Name":"Cuckfield Medical Centre","Type":"GP","20% most deprived":0,"Quintile 2":186,"Quintile 3":1378,"Quintile 4":1863,"20% least deprived":8877,"Unknown":4,"Total":12308,"long":-0.1366,"lat":51.0094,"PCN_Code":"U03364","PCN_Name":"Haywards Heath Villages PCN"},{"Area_Code":"H82006","Area_Name":"The Petworth Surgery","Type":"GP","20% most deprived":0,"Quintile 2":2,"Quintile 3":4456,"Quintile 4":1547,"20% least deprived":37,"Unknown":0,"Total":6042,"long":-0.6071,"lat":50.9834,"PCN_Code":"U33593","PCN_Name":"Rural North Chichester PCN"},{"Area_Code":"H82017","Area_Name":"Park Surgery","Type":"GP","20% most deprived":0,"Quintile 2":1643,"Quintile 3":5266,"Quintile 4":4677,"20% least deprived":11988,"Unknown":2,"Total":23576,"long":-0.3274,"lat":51.0644,"PCN_Code":"U26939","PCN_Name":"Horsham Central PCN"},{"Area_Code":"H82022","Area_Name":"Steyning Health Centre","Type":"GP","20% most deprived":0,"Quintile 2":7,"Quintile 3":1929,"Quintile 4":4580,"20% least deprived":5545,"Unknown":3,"Total":12064,"long":-0.33,"lat":50.8907,"PCN_Code":"U57981","PCN_Name":"Chanctonbury PCN"},{"Area_Code":"H82027","Area_Name":"Rudgwick Medical Centre","Type":"GP","20% most deprived":0,"Quintile 2":431,"Quintile 3":594,"Quintile 4":97,"20% least deprived":2870,"Unknown":2,"Total":3994,"long":-0.4506,"lat":51.0901,"PCN_Code":"U96386","PCN_Name":"Horsham Collaborative PCN"},{"Area_Code":"H82030","Area_Name":"Pulborough Medical Group","Type":"GP","20% most deprived":0,"Quintile 2":1,"Quintile 3":3645,"Quintile 4":4690,"20% least deprived":4795,"Unknown":2,"Total":13133,"long":-0.5091,"lat":50.9611,"PCN_Code":"U33593","PCN_Name":"Rural North Chichester PCN"},{"Area_Code":"H82031","Area_Name":"Loxwood Surgery","Type":"GP","20% most deprived":0,"Quintile 2":3,"Quintile 3":1492,"Quintile 4":2339,"20% least deprived":2506,"Unknown":1,"Total":6341,"long":-0.5157,"lat":51.0726,"PCN_Code":"U33593","PCN_Name":"Rural North Chichester PCN"},{"Area_Code":"H82032","Area_Name":"Riverbank Medical Centre","Type":"GP","20% most deprived":0,"Quintile 2":1,"Quintile 3":4503,"Quintile 4":4913,"20% least deprived":3520,"Unknown":0,"Total":12937,"long":-0.7351,"lat":50.9935,"PCN_Code":"U33593","PCN_Name":"Rural North Chichester PCN"},{"Area_Code":"H82035","Area_Name":"Lindfield Medical Centre","Type":"GP","20% most deprived":0,"Quintile 2":145,"Quintile 3":280,"Quintile 4":3319,"20% least deprived":7733,"Unknown":2,"Total":11479,"long":-0.0817,"lat":51.013,"PCN_Code":"U03364","PCN_Name":"Haywards Heath Villages PCN"},{"Area_Code":"H82036","Area_Name":"Orchard Surgery","Type":"GP","20% most deprived":0,"Quintile 2":543,"Quintile 3":2051,"Quintile 4":1705,"20% least deprived":4773,"Unknown":1,"Total":9073,"long":-0.3328,"lat":51.0622,"PCN_Code":"U26939","PCN_Name":"Horsham Central PCN"},{"Area_Code":"H82040","Area_Name":"Modality Mid Sussex","Type":"GP","20% most deprived":0,"Quintile 2":221,"Quintile 3":3186,"Quintile 4":4955,"20% least deprived":23572,"Unknown":3,"Total":31937,"long":-0.0776,"lat":51.1226,"PCN_Code":"U80779","PCN_Name":"East Grinstead PCN"},{"Area_Code":"H82044","Area_Name":"Dolphins Practice","Type":"GP","20% most deprived":0,"Quintile 2":425,"Quintile 3":439,"Quintile 4":838,"20% least deprived":9418,"Unknown":3,"Total":11123,"long":-0.1161,"lat":51.0002,"PCN_Code":"U04725","PCN_Name":"Haywards Heath Central PCN"},{"Area_Code":"H82051","Area_Name":"Lavant Road Surgery","Type":"GP","20% most deprived":0,"Quintile 2":1063,"Quintile 3":6623,"Quintile 4":771,"20% least deprived":3516,"Unknown":12,"Total":11985,"long":-0.7811,"lat":50.8534,"PCN_Code":"U24558","PCN_Name":"Chichester Alliance of Medical Practices PCN"},{"Area_Code":"H82052","Area_Name":"Pound Hill Medical Group","Type":"GP","20% most deprived":0,"Quintile 2":1290,"Quintile 3":3573,"Quintile 4":1162,"20% least deprived":10529,"Unknown":0,"Total":16554,"long":-0.1564,"lat":51.1188,"PCN_Code":"U14816","PCN_Name":"Healthy Crawley PCN"},{"Area_Code":"H82056","Area_Name":"Newtons Practice","Type":"GP","20% most deprived":0,"Quintile 2":665,"Quintile 3":377,"Quintile 4":1425,"20% least deprived":11100,"Unknown":6,"Total":13573,"long":-0.1039,"lat":51.0007,"PCN_Code":"U04725","PCN_Name":"Haywards Heath Central PCN"},{"Area_Code":"H82063","Area_Name":"Moatfield Surgery","Type":"GP","20% most deprived":0,"Quintile 2":40,"Quintile 3":1857,"Quintile 4":2197,"20% least deprived":11087,"Unknown":0,"Total":15181,"long":-0.013,"lat":51.1317,"PCN_Code":"U80779","PCN_Name":"East Grinstead PCN"},{"Area_Code":"H82070","Area_Name":"Glebe Surgery","Type":"GP","20% most deprived":0,"Quintile 2":2,"Quintile 3":3061,"Quintile 4":3280,"20% least deprived":6953,"Unknown":1,"Total":13297,"long":-0.4588,"lat":50.918,"PCN_Code":"U57981","PCN_Name":"Chanctonbury PCN"},{"Area_Code":"H82084","Area_Name":"Brow Medical Centre","Type":"GP","20% most deprived":0,"Quintile 2":164,"Quintile 3":1131,"Quintile 4":1365,"20% least deprived":3850,"Unknown":1,"Total":6511,"long":-0.1355,"lat":50.9556,"PCN_Code":"U06871","PCN_Name":"Burgess Hill & Villages PCN"},{"Area_Code":"H82092","Area_Name":"Village Surgery","Type":"GP","20% most deprived":0,"Quintile 2":192,"Quintile 3":1260,"Quintile 4":2194,"20% least deprived":6110,"Unknown":1,"Total":9757,"long":-0.3504,"lat":51.0237,"PCN_Code":"U96386","PCN_Name":"Horsham Collaborative PCN"},{"Area_Code":"H82100","Area_Name":"Northlands Wood Surgery","Type":"GP","20% most deprived":0,"Quintile 2":565,"Quintile 3":178,"Quintile 4":1385,"20% least deprived":5948,"Unknown":0,"Total":8076,"long":-0.0812,"lat":50.9965,"PCN_Code":"U04725","PCN_Name":"Haywards Heath Central PCN"},{"Area_Code":"U04725","Area_Name":"Haywards Heath Central PCN","Type":"PCN","20% most deprived":0,"Quintile 2":1655,"Quintile 3":994,"Quintile 4":3648,"20% least deprived":26466,"Unknown":9,"Total":32772,"PCN_Name":"Haywards Heath Central PCN"},{"Area_Code":"U33593","Area_Name":"Rural North Chichester PCN","Type":"PCN","20% most deprived":0,"Quintile 2":7,"Quintile 3":14096,"Quintile 4":13489,"20% least deprived":10858,"Unknown":3,"Total":38453,"PCN_Name":"Rural North Chichester PCN"},{"Area_Code":"U80779","Area_Name":"East Grinstead PCN","Type":"PCN","20% most deprived":0,"Quintile 2":261,"Quintile 3":5043,"Quintile 4":7152,"20% least deprived":34659,"Unknown":3,"Total":47118,"PCN_Name":"East Grinstead PCN"}]
